[{"OBJECT_NAME":"ONEWEB-0092","OBJECT_ID":"2020-020P","EPOCH":"2025-07-28T21:38:40.008480","MEAN_MOTION":13.11416184,"ECCENTRICITY":0.0001533,"INCLINATION":87.8808,"RA_OF_ASC_NODE":85.4959,"ARG_OF_PERICENTER":82.7831,"MEAN_ANOMALY":277.3471,"EPHEMERIS_TYPE":0,"CLASSIFICATION_TYPE":"U","NORAD_CAT_ID":45437,"ELEMENT_SET_NO":999,"REV_AT_EPOCH":26041,"BSTAR":-0.00080646,"MEAN_MOTION_DOT":-2.73e-6,"MEAN_MOTION_DDOT":0},{"OBJECT_NAME":"ONEWEB-0085","OBJECT_ID":"2020-020Q","EPOCH":"2025-07-28T16:50:34.620576","MEAN_MOTION":13.11418928,"ECCENTRICITY":0.0001623,"INCLINATION":87.8811,"RA_OF_ASC_NODE":85.5483,"ARG_OF_PERICENTER":81.5622,"MEAN_ANOMALY":278.569,"EPHEMERIS_TYPE":0,"CLASSIFICATION_TYPE":"U","NORAD_CAT_ID":45438,"ELEMENT_SET_NO":999,"REV_AT_EPOCH":26028,"BSTAR":0.0001104,"MEAN_MOTION_DOT":5.2e-7,"MEAN_MOTION_DDOT":0},{"OBJECT_NAME":"ONEWEB-0096","OBJECT_ID":"2020-020R","EPOCH":"2025-07-28T15:14:08.411712","MEAN_MOTION":13.11418452,"ECCENTRICITY":0.0001977,"INCLINATION":87.8822,"RA_OF_ASC_NODE":85.5286,"ARG_OF_PERICENTER":81.489,"MEAN_ANOMALY":278.6462,"EPHEMERIS_TYPE":0,"CLASSIFICATION_TYPE":"U","NORAD_CAT_ID":45439,"ELEMENT_SET_NO":999,"REV_AT_EPOCH":26025,"BSTAR":0.00112,"MEAN_MOTION_DOT":4.1e-6,"MEAN_MOTION_DDOT":0},{"OBJECT_NAME":"ONEWEB-0037","OBJECT_ID":"2020-020S","EPOCH":"2025-07-28T16:35:55.877280","MEAN_MOTION":13.11417999,"ECCENTRICITY":0.0001689,"INCLINATION":87.8827,"RA_OF_ASC_NODE":85.4814,"ARG_OF_PERICENTER":81.2763,"MEAN_ANOMALY":278.8556,"EPHEMERIS_TYPE":0,"CLASSIFICATION_TYPE":"U","NORAD_CAT_ID":45440,"ELEMENT_SET_NO":999,"REV_AT_EPOCH":26030,"BSTAR":-0.0014737,"MEAN_MOTION_DOT":-5.1e-6,"MEAN_MOTION_DDOT":0},{"OBJECT_NAME":"ONEWEB-0042","OBJECT_ID":"2020-020T","EPOCH":"2025-07-29T03:48:21.264480","MEAN_MOTION":13.11421293,"ECCENTRICITY":0.0001755,"INCLINATION":87.8816,"RA_OF_ASC_NODE":85.4335,"ARG_OF_PERICENTER":82.8056,"MEAN_ANOMALY":277.3271,"EPHEMERIS_TYPE":0,"CLASSIFICATION_TYPE":"U","NORAD_CAT_ID":45441,"ELEMENT_SET_NO":999,"REV_AT_EPOCH":26033,"BSTAR":-0.00026394,"MEAN_MOTION_DOT":-8.1e-7,"MEAN_MOTION_DDOT":0},{"OBJECT_NAME":"ONEWEB-0098","OBJECT_ID":"2020-020U","EPOCH":"2025-07-28T16:43:14.867904","MEAN_MOTION":13.11418858,"ECCENTRICITY":0.0001823,"INCLINATION":87.8817,"RA_OF_ASC_NODE":85.536,"ARG_OF_PERICENTER":71.0552,"MEAN_ANOMALY":289.0773,"EPHEMERIS_TYPE":0,"CLASSIFICATION_TYPE":"U","NORAD_CAT_ID":45442,"ELEMENT_SET_NO":999,"REV_AT_EPOCH":26024,"BSTAR":-0.0006602,"MEAN_MOTION_DOT":-2.21e-6,"MEAN_MOTION_DDOT":0},{"OBJECT_NAME":"ONEWEB-0055","OBJECT_ID":"2020-020V","EPOCH":"2025-07-28T16:18:50.043168","MEAN_MOTION":13.11416562,"ECCENTRICITY":0.0001783,"INCLINATION":87.8808,"RA_OF_ASC_NODE":85.5417,"ARG_OF_PERICENTER":76.9822,"MEAN_ANOMALY":283.1505,"EPHEMERIS_TYPE":0,"CLASSIFICATION_TYPE":"U","NORAD_CAT_ID":45443,"ELEMENT_SET_NO":999,"REV_AT_EPOCH":26022,"BSTAR":-0.0013607,"MEAN_MOTION_DOT":-4.7e-6,"MEAN_MOTION_DDOT":0},{"OBJECT_NAME":"ONEWEB-0093","OBJECT_ID":"2020-020W","EPOCH":"2025-07-28T21:13:14.894688","MEAN_MOTION":13.11414912,"ECCENTRICITY":0.0001985,"INCLINATION":87.8813,"RA_OF_ASC_NODE":85.4853,"ARG_OF_PERICENTER":92.2894,"MEAN_ANOMALY":267.8461,"EPHEMERIS_TYPE":0,"CLASSIFICATION_TYPE":"U","NORAD_CAT_ID":45444,"ELEMENT_SET_NO":999,"REV_AT_EPOCH":26031,"BSTAR":0.0011739,"MEAN_MOTION_DOT":4.29e-6,"MEAN_MOTION_DDOT":0},{"OBJECT_NAME":"ONEWEB-0029","OBJECT_ID":"2020-020X","EPOCH":"2025-07-29T04:55:42.202848","MEAN_MOTION":13.11415859,"ECCENTRICITY":0.0001875,"INCLINATION":87.8811,"RA_OF_ASC_NODE":85.4333,"ARG_OF_PERICENTER":81.8716,"MEAN_ANOMALY":278.2625,"EPHEMERIS_TYPE":0,"CLASSIFICATION_TYPE":"U","NORAD_CAT_ID":45445,"ELEMENT_SET_NO":999,"REV_AT_EPOCH":26033,"BSTAR":-0.00038858,"MEAN_MOTION_DOT":-1.25e-6,"MEAN_MOTION_DDOT":0},{"OBJECT_NAME":"ONEWEB-0068","OBJECT_ID":"2020-020Y","EPOCH":"2025-07-28T13:53:22.868160","MEAN_MOTION":13.11416382,"ECCENTRICITY":0.0001927,"INCLINATION":87.8814,"RA_OF_ASC_NODE":85.5472,"ARG_OF_PERICENTER":82.5256,"MEAN_ANOMALY":277.6091,"EPHEMERIS_TYPE":0,"CLASSIFICATION_TYPE":"U","NORAD_CAT_ID":45446,"ELEMENT_SET_NO":999,"REV_AT_EPOCH":26018,"BSTAR":0.00098851,"MEAN_MOTION_DOT":3.63e-6,"MEAN_MOTION_DDOT":0},{"OBJECT_NAME":"ONEWEB-0046","OBJECT_ID":"2020-020Z","EPOCH":"2025-07-28T15:31:14.408256","MEAN_MOTION":13.11416063,"ECCENTRICITY":0.000174,"INCLINATION":87.8815,"RA_OF_ASC_NODE":85.5437,"ARG_OF_PERICENTER":88.0557,"MEAN_ANOMALY":272.077,"EPHEMERIS_TYPE":0,"CLASSIFICATION_TYPE":"U","NORAD_CAT_ID":45447,"ELEMENT_SET_NO":999,"REV_AT_EPOCH":26021,"BSTAR":0.0014978,"MEAN_MOTION_DOT":5.44e-6,"MEAN_MOTION_DDOT":0},{"OBJECT_NAME":"ONEWEB-0063","OBJECT_ID":"2020-020AA","EPOCH":"2025-07-28T21:42:19.803168","MEAN_MOTION":13.1141563,"ECCENTRICITY":0.0001561,"INCLINATION":87.8815,"RA_OF_ASC_NODE":85.4902,"ARG_OF_PERICENTER":83.5258,"MEAN_ANOMALY":276.6047,"EPHEMERIS_TYPE":0,"CLASSIFICATION_TYPE":"U","NORAD_CAT_ID":45448,"ELEMENT_SET_NO":999,"REV_AT_EPOCH":26032,"BSTAR":-0.0012107,"MEAN_MOTION_DOT":-4.16e-6,"MEAN_MOTION_DDOT":0},{"OBJECT_NAME":"ONEWEB-0019","OBJECT_ID":"2020-020AB","EPOCH":"2025-07-28T13:45:01.996128","MEAN_MOTION":13.11417065,"ECCENTRICITY":0.0001847,"INCLINATION":87.8813,"RA_OF_ASC_NODE":85.5742,"ARG_OF_PERICENTER":78.1843,"MEAN_ANOMALY":281.9492,"EPHEMERIS_TYPE":0,"CLASSIFICATION_TYPE":"U","NORAD_CAT_ID":45449,"ELEMENT_SET_NO":999,"REV_AT_EPOCH":26012,"BSTAR":0.0014287,"MEAN_MOTION_DOT":5.19e-6,"MEAN_MOTION_DDOT":0},{"OBJECT_NAME":"ONEWEB-0094","OBJECT_ID":"2020-020AC","EPOCH":"2025-07-28T13:34:07.371840","MEAN_MOTION":13.17650953,"ECCENTRICITY":0.0001798,"INCLINATION":87.9037,"RA_OF_ASC_NODE":70.2475,"ARG_OF_PERICENTER":85.7137,"MEAN_ANOMALY":274.42,"EPHEMERIS_TYPE":0,"CLASSIFICATION_TYPE":"U","NORAD_CAT_ID":45450,"ELEMENT_SET_NO":999,"REV_AT_EPOCH":26369,"BSTAR":-2.1451e-5,"MEAN_MOTION_DOT":5.0e-8,"MEAN_MOTION_DDOT":0},{"OBJECT_NAME":"ONEWEB-0087","OBJECT_ID":"2020-020AD","EPOCH":"2025-07-28T14:37:18.680736","MEAN_MOTION":13.11417888,"ECCENTRICITY":0.000197,"INCLINATION":87.8812,"RA_OF_ASC_NODE":85.5005,"ARG_OF_PERICENTER":85.1929,"MEAN_ANOMALY":274.9424,"EPHEMERIS_TYPE":0,"CLASSIFICATION_TYPE":"U","NORAD_CAT_ID":45451,"ELEMENT_SET_NO":999,"REV_AT_EPOCH":26017,"BSTAR":-0.0014332,"MEAN_MOTION_DOT":-4.95e-6,"MEAN_MOTION_DDOT":0},{"OBJECT_NAME":"ONEWEB-0082","OBJECT_ID":"2020-020AE","EPOCH":"2025-07-29T03:21:41.853600","MEAN_MOTION":13.1141593,"ECCENTRICITY":0.0001949,"INCLINATION":87.8812,"RA_OF_ASC_NODE":85.4182,"ARG_OF_PERICENTER":78.8443,"MEAN_ANOMALY":281.2904,"EPHEMERIS_TYPE":0,"CLASSIFICATION_TYPE":"U","NORAD_CAT_ID":45452,"ELEMENT_SET_NO":999,"REV_AT_EPOCH":26034,"BSTAR":-0.0013106,"MEAN_MOTION_DOT":-4.52e-6,"MEAN_MOTION_DDOT":0},{"OBJECT_NAME":"ONEWEB-0050","OBJECT_ID":"2020-020AF","EPOCH":"2025-07-29T04:50:27.332736","MEAN_MOTION":14.90860238,"ECCENTRICITY":0.0004847,"INCLINATION":87.9977,"RA_OF_ASC_NODE":284.6937,"ARG_OF_PERICENTER":75.8365,"MEAN_ANOMALY":284.3402,"EPHEMERIS_TYPE":0,"CLASSIFICATION_TYPE":"U","NORAD_CAT_ID":45453,"ELEMENT_SET_NO":999,"REV_AT_EPOCH":29229,"BSTAR":0.00031401,"MEAN_MOTION_DOT":3.116e-5,"MEAN_MOTION_DDOT":0}]
