ONEWEB-0092             
1 45437U 20020P   25209.90185195 -.00000273  00000+0 -80646-3 0  9993
2 45437  87.8808  85.4959 0001533  82.7831 277.3471 13.11416184260419
ONEWEB-0085             
1 45438U 20020Q   25209.70178959  .00000052  00000+0  11040-3 0  9997
2 45438  87.8811  85.5483 0001623  81.5622 278.5690 13.11418928260281
ONEWEB-0096             
1 45439U 20020R   25209.63481958  .00000410  00000+0  11200-2 0  9991
2 45439  87.8822  85.5286 0001977  81.4890 278.6462 13.11418452260250
ONEWEB-0037             
1 45440U 20020S   25209.69161895 -.00000510  00000+0 -14737-2 0  9995
2 45440  87.8827  85.4814 0001689  81.2763 278.8556 13.11417999260307
ONEWEB-0042             
1 45441U 20020T   25210.15857945 -.00000081  00000+0 -26394-3 0  9993
2 45441  87.8816  85.4335 0001755  82.8056 277.3271 13.11421293260333
ONEWEB-0098             
1 45442U 20020U   25209.69669986 -.00000221  00000+0 -66020-3 0  9993
2 45442  87.8817  85.5360 0001823  71.0552 289.0773 13.11418858260241
ONEWEB-0055             
1 45443U 20020V   25209.67974587 -.00000470  00000+0 -13607-2 0  9996
2 45443  87.8808  85.5417 0001783  76.9822 283.1505 13.11416562260220
ONEWEB-0093             
1 45444U 20020W   25209.88420017  .00000429  00000+0  11739-2 0  9990
2 45444  87.8813  85.4853 0001985  92.2894 267.8461 13.11414912260311
ONEWEB-0029             
1 45445U 20020X   25210.20534957 -.00000125  00000+0 -38858-3 0  9995
2 45445  87.8811  85.4333 0001875  81.8716 278.2625 13.11415859260339
ONEWEB-0068             
1 45446U 20020Y   25209.57873690  .00000363  00000+0  98851-3 0  9995
2 45446  87.8814  85.5472 0001927  82.5256 277.6091 13.11416382260188
ONEWEB-0046             
1 45447U 20020Z   25209.64669454  .00000544  00000+0  14978-2 0  9993
2 45447  87.8815  85.5437 0001740  88.0557 272.0770 13.11416063260212
ONEWEB-0063             
1 45448U 20020AA  25209.90439587 -.00000416  00000+0 -12107-2 0  9997
2 45448  87.8815  85.4902 0001561  83.5258 276.6047 13.11415630260326
ONEWEB-0019             
1 45449U 20020AB  25209.57293977  .00000519  00000+0  14287-2 0  9995
2 45449  87.8813  85.5742 0001847  78.1843 281.9492 13.11417065260120
ONEWEB-0094             
1 45450U 20020AC  25209.56536310  .00000005  00000+0 -21451-4 0  9991
2 45450  87.9037  70.2475 0001798  85.7137 274.4200 13.17650953263690
ONEWEB-0087             
1 45451U 20020AD  25209.60924399 -.00000495  00000+0 -14332-2 0  9997
2 45451  87.8812  85.5005 0001970  85.1929 274.9424 13.11417888260179
ONEWEB-0082             
1 45452U 20020AE  25210.14006775 -.00000452  00000+0 -13106-2 0  9999
2 45452  87.8812  85.4182 0001949  78.8443 281.2904 13.11415930260340
ONEWEB-0050             
1 45453U 20020AF  25210.20170524  .00003116  00000+0  31401-3 0  9998
2 45453  87.9977 284.6937 0004847  75.8365 284.3402 14.90860238292294
